     2.100          NAVIGATION                              RINEX VERSION / TYPE
fic2rin                                 12/18/2012 00:37:17 PGM / RUN BY / DATE
                                                            END OF HEADER
10 12 12 17 12  0  0.0 -.625429674983D-04 -.147792889038D-11  .000000000000D+00
     .640000000000D+02  .618750000000D+01  .514557147656D-08 -.191025661287D+01
     .298023223877D-06  .121513288468D-01  .509992241859D-05  .515374086380D+04
     .129600000000D+06  .135973095894D-06  .248433433013D+01 -.838190317154D-07
     .944430855496D+00  .270875000000D+03  .782952793424D+00 -.829891711178D-08
    -.675028117631D-10  .100000000000D+01  .171900000000D+04  .000000000000D+00
     .240000000000D+01  .000000000000D+00 -.279396772385D-08  .640000000000D+02
     .122406000000D+06  .400000000000D+01
11 12 12 17 12  0  0.0 -.334131997079D-03 -.386535248253D-11  .000000000000D+00
     .310000000000D+02 -.112812500000D+02  .626668960420D-08  .778633461963D+00
    -.366941094398D-06  .137868039310D-01  .112727284431D-04  .515368589592D+04
     .129600000000D+06 -.163912773132D-06  .113233205760D+01  .875443220139D-07
     .888236977058D+00  .126062500000D+03  .113224802027D+01 -.900716089869D-08
     .181078971237D-09  .100000000000D+01  .171900000000D+04  .000000000000D+00
     .240000000000D+01  .000000000000D+00 -.116415321827D-07  .310000000000D+02
     .122406000000D+06  .400000000000D+01
12 12 12 17 12  0  0.0  .107344705611D-03  .204636307899D-11  .000000000000D+00
     .660000000000D+02 -.426562500000D+02  .445054252582D-08  .299179313676D+00
    -.215880572796D-05  .408049183898D-02  .307895243168D-05  .515365501404D+04
     .129600000000D+06  .104308128357D-06 -.647099451661D+00 -.931322574615D-08
     .982377115973D+00  .334750000000D+03  .139135375067D+00 -.827748764773D-08
     .196436753808D-10  .100000000000D+01  .171900000000D+04  .000000000000D+00
     .240000000000D+01  .000000000000D+00 -.121071934700D-07  .660000000000D+02
     .122406000000D+06  .400000000000D+01
13 12 12 17 12  0  0.0  .159511808306D-03 -.284217094304D-11  .000000000000D+00
     .430000000000D+02  .884375000000D+01  .376158525655D-08  .299273741381D+01
     .553205609322D-06  .481753598433D-02  .104885548353D-04  .515358265305D+04
     .129600000000D+06 -.204890966415D-07 -.267368725168D+01 -.372529029846D-07
     .983749988519D+00  .189437500000D+03  .207043652533D+01 -.756960101855D-08
    -.398945189097D-09  .100000000000D+01  .171900000000D+04  .000000000000D+00
     .240000000000D+01  .000000000000D+00 -.111758708954D-07  .430000000000D+02
     .122406000000D+06  .400000000000D+01
14 12 12 17 12  0  0.0  .218382105231D-03  .568434188608D-12  .000000000000D+00
     .490000000000D+02  .222500000000D+02  .381765902082D-08 -.311705356332D+01
     .117905437946D-05  .677346007433D-02  .107400119305D-04  .515368900490D+04
     .129600000000D+06  .763684511185D-07 -.270179580062D+01 -.763684511185D-07
     .976500655972D+00  .177812500000D+03 -.201570569517D+01 -.759210195581D-08
    -.371801201298D-09  .100000000000D+01  .171900000000D+04  .000000000000D+00
     .240000000000D+01  .000000000000D+00 -.884756445885D-08  .490000000000D+02
     .122406000000D+06  .400000000000D+01
16 12 12 17 12  0  0.0 -.250905286521D-03 -.454747350886D-12  .000000000000D+00
     .540000000000D+02 -.349375000000D+02  .442447001122D-08 -.196737408123D+01
    -.200048089027D-05  .671984744258D-02  .326707959175D-05  .515354416466D+04
     .129600000000D+06 -.502914190292D-07 -.628808355775D+00 -.132247805595D-06
     .983139786370D+00  .330593750000D+03  .286829520172D-01 -.825248660633D-08
     .111076055335D-09  .100000000000D+01  .171900000000D+04  .000000000000D+00
     .240000000000D+01  .000000000000D+00 -.977888703346D-08  .540000000000D+02
     .122406000000D+06  .400000000000D+01
17 12 12 17 12  0  0.0  .685686245561D-04 -.352429196937D-11  .000000000000D+00
     .780000000000D+02 -.984062500000D+02  .434196657462D-08 -.289993030779D+01
    -.506639480591D-05  .789151084609D-02  .976584851742D-05  .515377919388D+04
     .129600000000D+06  .316649675369D-07  .409300747122D+00 -.173225998878D-06
     .964524089443D+00  .191312500000D+03 -.227762751215D+01 -.783461205733D-08
    -.635740766869D-10  .100000000000D+01  .171900000000D+04  .000000000000D+00
     .340000000000D+01  .000000000000D+00 -.107102096081D-07  .780000000000D+02
     .122406000000D+06  .400000000000D+01
18 12 12 17 12  0  0.0  .229829922318D-03  .181898940355D-11  .000000000000D+00
     .250000000000D+02  .721875000000D+01  .561773400117D-08 -.142156974135D+01
     .445172190666D-06  .136168838944D-01  .510364770889D-05  .515374336815D+04
     .129600000000D+06  .365078449249D-06  .246999083822D+01  .119209289551D-06
     .928205044449D+00  .263312500000D+03 -.213431503198D+01 -.858500045687D-08
    -.240009997380D-09  .100000000000D+01  .171900000000D+04  .000000000000D+00
     .240000000000D+01  .000000000000D+00 -.107102096081D-07  .250000000000D+02
     .122406000000D+06  .400000000000D+01
19 12 12 17 12  0  0.0 -.331704504788D-03 -.341060513165D-11  .000000000000D+00
     .840000000000D+02 -.103062500000D+03  .443125600817D-08  .263438789585D+01
    -.525638461113D-05  .872135453392D-02  .102426856756D-04  .515365426826D+04
     .129600000000D+06 -.137835741043D-06  .461700240308D+00 -.502914190292D-07
     .961784879206D+00  .183281250000D+03  .275232359984D+00 -.788532845558D-08
    -.917895376884D-10  .100000000000D+01  .171900000000D+04  .000000000000D+00
     .240000000000D+01  .000000000000D+00 -.144354999065D-07  .840000000000D+02
     .122406000000D+06  .400000000000D+01
20 12 12 17 12  0  0.0  .767568126321D-04  .125055521494D-11  .000000000000D+00
     .110000000000D+03  .175937500000D+02  .571845248221D-08 -.875942555003D+00
     .903382897377D-06  .539995159488D-02  .527128577232D-05  .515356713867D+04
     .129600000000D+06 -.670552253723D-07  .241640700898D+01  .968575477600D-07
     .928791715560D+00  .259687500000D+03  .127932516066D+01 -.874679291046D-08
    -.126790995640D-09  .100000000000D+01  .171900000000D+04  .000000000000D+00
     .340000000000D+01  .000000000000D+00 -.791624188423D-08  .110000000000D+03
     .122406000000D+06  .400000000000D+01
21 12 12 17 12  0  0.0 -.268880277872D-03 -.238742359215D-11  .000000000000D+00
     .840000000000D+02  .356875000000D+02  .542201156283D-08 -.312574906354D+00
     .193715095520D-05  .195519854315D-01  .963173806667D-05  .515375862885D+04
     .129600000000D+06 -.596046447754D-07  .142062540872D+01  .268220901489D-06
     .931030938433D+00  .178875000000D+03 -.219630891685D+01 -.879822362419D-08
     .344300055765D-09  .100000000000D+01  .171900000000D+04  .000000000000D+00
     .240000000000D+01  .000000000000D+00 -.111758708954D-07  .840000000000D+02
     .122406000000D+06  .400000000000D+01
23 12 12 17 12  0  0.0  .133190304041D-03 -.386535248253D-11  .000000000000D+00
     .920000000000D+02 -.196875000000D+01  .441804117201D-08  .223250436429D+01
    -.558793544769D-07  .812397582922D-02  .101849436760D-04  .515377936172D+04
     .129600000000D+06 -.124797224998D-06 -.275756047645D+01  .931322574615D-08
     .958069190170D+00  .183687500000D+03 -.291529178588D+01 -.797211778499D-08
    -.493234830925D-09  .100000000000D+01  .171900000000D+04  .000000000000D+00
     .240000000000D+01  .000000000000D+00 -.204890966415D-07  .920000000000D+02
     .122406000000D+06  .400000000000D+01
24 12 12 17 12  0  0.0  .221654772758D-05 -.682121026330D-12  .000000000000D+00
     .800000000000D+01  .903125000000D+02  .448161524869D-08  .187270558897D+01
     .453740358353D-05  .345182023011D-03  .687502324581D-05  .515371962929D+04
     .129600000000D+06 -.558793544769D-08 -.173097447643D+01  .931322574615D-08
     .959219927383D+00  .245843750000D+03 -.225963957677D+00 -.817176895841D-08
     .262510934634D-09  .100000000000D+01  .171900000000D+04  .000000000000D+00
     .240000000000D+01  .000000000000D+00  .419095158577D-08  .800000000000D+01
     .122406000000D+06  .400000000000D+01
25 12 12 17 12  0  0.0  .569880940020D-04  .227373675443D-11  .000000000000D+00
     .240000000000D+02 -.378125000000D+02  .469055252320D-08 -.709640494232D+00
    -.190734863281D-05  .189722771756D-02  .280141830444D-05  .515361452866D+04
     .129600000000D+06  .931322574615D-08 -.683519701328D+00 -.242143869400D-07
     .971199770849D+00  .332843750000D+03  .629977225857D+00 -.843070831570D-08
     .482162941165D-10  .100000000000D+01  .171900000000D+04  .000000000000D+00
     .240000000000D+01  .000000000000D+00  .512227416039D-08  .240000000000D+02
     .122406000000D+06  .400000000000D+01
26 12 12 17 12  0  0.0 -.171799212694D-03  .135287336889D-10  .000000000000D+00
     .108000000000D+03  .162500000000D+02  .373265548008D-08  .210186168803D+01
     .597909092903D-06  .209237397648D-01  .103600323200D-04  .515366295433D+04
     .129600000000D+06  .763684511185D-07 -.268046944669D+01 -.415369868279D-06
     .981242255810D+00  .188218750000D+03  .121176851370D+01 -.751102715014D-08
    -.290012080167D-09  .100000000000D+01  .171900000000D+04  .000000000000D+00
     .240000000000D+01  .000000000000D+00 -.605359673500D-08  .108000000000D+03
     .122406000000D+06  .400000000000D+01
27 12 12 17 12  0  0.0 -.204025767744D-03  .352429196937D-11  .000000000000D+00
     .540000000000D+02 -.306562500000D+02  .580202739202D-08 -.206862350316D+01
    -.171549618244D-05  .564650527667D-02  .282563269138D-05  .515361105919D+04
     .129600000000D+06  .391155481339D-07 -.667655822065D+00 -.633299350739D-07
     .976076346823D+00  .330906250000D+03  .860755848816D+00 -.828391648694D-08
     .102504269714D-09  .100000000000D+01  .171900000000D+04  .000000000000D+00
     .240000000000D+01  .630000000000D+02 -.190921127796D-07  .540000000000D+02
     .122406000000D+06  .400000000000D+01
